[{"OBJECT_NAME":"STARLINK-3643","OBJECT_ID":"2022-025AN","EPOCH":"2026-03-09T06:30:35.802144","MEAN_MOTION":15.08840189,"ECCENTRICITY":0.0001447,"INCLINATION":53.218,"RA_OF_ASC_NODE":20.9998,"ARG_OF_PERICENTER":86.0884,"MEAN_ANOMALY":274.0274,"EPHEMERIS_TYPE":0,"CLASSIFICATION_TYPE":"U","NORAD_CAT_ID":51992,"ELEMENT_SET_NO":999,"REV_AT_EPOCH":22084,"BSTAR":6.551727e-6,"MEAN_MOTION_DOT":-1.84e-6,"MEAN_MOTION_DDOT":0},{"OBJECT_NAME":"JILIN-1 KUANFU 01C","OBJECT_ID":"2022-048A","EPOCH":"2026-03-09T22:44:12.026688","MEAN_MOTION":15.09601076,"ECCENTRICITY":0.00140886,"INCLINATION":97.5312,"RA_OF_ASC_NODE":147.8831,"ARG_OF_PERICENTER":308.8335,"MEAN_ANOMALY":51.1636,"EPHEMERIS_TYPE":0,"CLASSIFICATION_TYPE":"U","NORAD_CAT_ID":52443,"ELEMENT_SET_NO":999,"REV_AT_EPOCH":21222,"BSTAR":0.00028577595,"MEAN_MOTION_DOT":4.539e-5,"MEAN_MOTION_DDOT":0}]
